[{"OBJECT_NAME":"STARLINK-30212","OBJECT_ID":"2023-113M","EPOCH":"2025-08-22T10:53:09.505536","MEAN_MOTION":15.02534398,"ECCENTRICITY":0.00016297,"INCLINATION":43.0043,"RA_OF_ASC_NODE":20.4565,"ARG_OF_PERICENTER":268.4036,"MEAN_ANOMALY":91.6619,"EPHEMERIS_TYPE":0,"CLASSIFICATION_TYPE":"U","NORAD_CAT_ID":57506,"ELEMENT_SET_NO":999,"REV_AT_EPOCH":11352,"BSTAR":3.4017214e-5,"MEAN_MOTION_DOT":2.56e-6,"MEAN_MOTION_DDOT":0},{"OBJECT_NAME":"STARLINK-30219","OBJECT_ID":"2023-113N","EPOCH":"2025-08-22T10:48:22.085568","MEAN_MOTION":15.0253167,"ECCENTRICITY":0.00014201,"INCLINATION":43.0044,"RA_OF_ASC_NODE":20.4452,"ARG_OF_PERICENTER":268.098,"MEAN_ANOMALY":91.97,"EPHEMERIS_TYPE":0,"CLASSIFICATION_TYPE":"U","NORAD_CAT_ID":57507,"ELEMENT_SET_NO":999,"REV_AT_EPOCH":11368,"BSTAR":1.3886282e-5,"MEAN_MOTION_DOT":-1.6e-7,"MEAN_MOTION_DDOT":0},{"OBJECT_NAME":"STARLINK-30074","OBJECT_ID":"2023-113P","EPOCH":"2025-08-20T17:38:27.456000","MEAN_MOTION":15.02540658,"ECCENTRICITY":0.0001387,"INCLINATION":43.0029,"RA_OF_ASC_NODE":29.0689,"ARG_OF_PERICENTER":276.7839,"MEAN_ANOMALY":83.2846,"EPHEMERIS_TYPE":0,"CLASSIFICATION_TYPE":"U","NORAD_CAT_ID":57508,"ELEMENT_SET_NO":999,"REV_AT_EPOCH":11322,"BSTAR":-4.0772e-5,"MEAN_MOTION_DOT":-7.54e-6,"MEAN_MOTION_DDOT":0},{"OBJECT_NAME":"STARLINK-30082","OBJECT_ID":"2023-113Q","EPOCH":"2025-08-22T10:29:11.495904","MEAN_MOTION":15.02531156,"ECCENTRICITY":0.00014792,"INCLINATION":43.0053,"RA_OF_ASC_NODE":20.3466,"ARG_OF_PERICENTER":267.6025,"MEAN_ANOMALY":92.4648,"EPHEMERIS_TYPE":0,"CLASSIFICATION_TYPE":"U","NORAD_CAT_ID":57509,"ELEMENT_SET_NO":999,"REV_AT_EPOCH":11368,"BSTAR":2.63603e-6,"MEAN_MOTION_DOT":-1.68e-6,"MEAN_MOTION_DDOT":0},{"OBJECT_NAME":"STARLINK-30153","OBJECT_ID":"2023-113R","EPOCH":"2025-08-22T10:24:23.637888","MEAN_MOTION":15.02521227,"ECCENTRICITY":9.988e-5,"INCLINATION":43.004,"RA_OF_ASC_NODE":20.3313,"ARG_OF_PERICENTER":263.1598,"MEAN_ANOMALY":96.9131,"EPHEMERIS_TYPE":0,"CLASSIFICATION_TYPE":"U","NORAD_CAT_ID":57510,"ELEMENT_SET_NO":999,"REV_AT_EPOCH":11357,"BSTAR":4.9420401e-5,"MEAN_MOTION_DOT":4.64e-6,"MEAN_MOTION_DDOT":0},{"OBJECT_NAME":"STARLINK-30147","OBJECT_ID":"2023-113S","EPOCH":"2025-08-22T10:38:47.117760","MEAN_MOTION":15.02530874,"ECCENTRICITY":0.0001146,"INCLINATION":43.005,"RA_OF_ASC_NODE":20.3956,"ARG_OF_PERICENTER":260.4928,"MEAN_ANOMALY":99.5785,"EPHEMERIS_TYPE":0,"CLASSIFICATION_TYPE":"U","NORAD_CAT_ID":57511,"ELEMENT_SET_NO":999,"REV_AT_EPOCH":11368,"BSTAR":-2.7280551e-5,"MEAN_MOTION_DOT":-5.72e-6,"MEAN_MOTION_DDOT":0},{"OBJECT_NAME":"STARLINK-30157","OBJECT_ID":"2023-113T","EPOCH":"2025-08-21T15:45:03.982176","MEAN_MOTION":15.02532622,"ECCENTRICITY":0.00014048,"INCLINATION":43.0047,"RA_OF_ASC_NODE":358.2579,"ARG_OF_PERICENTER":272.945,"MEAN_ANOMALY":87.1232,"EPHEMERIS_TYPE":0,"CLASSIFICATION_TYPE":"U","NORAD_CAT_ID":57512,"ELEMENT_SET_NO":999,"REV_AT_EPOCH":11387,"BSTAR":-8.336674e-6,"MEAN_MOTION_DOT":-3.16e-6,"MEAN_MOTION_DDOT":0},{"OBJECT_NAME":"STARLINK-30168","OBJECT_ID":"2023-113U","EPOCH":"2025-08-22T10:43:33.540672","MEAN_MOTION":15.02537928,"ECCENTRICITY":9.758e-5,"INCLINATION":43.003,"RA_OF_ASC_NODE":20.3893,"ARG_OF_PERICENTER":267.9903,"MEAN_ANOMALY":92.0828,"EPHEMERIS_TYPE":0,"CLASSIFICATION_TYPE":"U","NORAD_CAT_ID":57513,"ELEMENT_SET_NO":999,"REV_AT_EPOCH":11352,"BSTAR":9.0450068e-5,"MEAN_MOTION_DOT":1.019e-5,"MEAN_MOTION_DDOT":0},{"OBJECT_NAME":"STARLINK-30231","OBJECT_ID":"2023-113V","EPOCH":"2025-08-21T10:23:40.562304","MEAN_MOTION":15.02533808,"ECCENTRICITY":0.00011762,"INCLINATION":43.0042,"RA_OF_ASC_NODE":25.7034,"ARG_OF_PERICENTER":274.9235,"MEAN_ANOMALY":85.1473,"EPHEMERIS_TYPE":0,"CLASSIFICATION_TYPE":"U","NORAD_CAT_ID":57514,"ELEMENT_SET_NO":999,"REV_AT_EPOCH":11353,"BSTAR":4.35294e-7,"MEAN_MOTION_DOT":-1.98e-6,"MEAN_MOTION_DDOT":0},{"OBJECT_NAME":"STARLINK-30081","OBJECT_ID":"2023-113W","EPOCH":"2025-08-22T10:00:25.478784","MEAN_MOTION":15.02533301,"ECCENTRICITY":0.0001271,"INCLINATION":43.0062,"RA_OF_ASC_NODE":20.2069,"ARG_OF_PERICENTER":269.3093,"MEAN_ANOMALY":90.7604,"EPHEMERIS_TYPE":0,"CLASSIFICATION_TYPE":"U","NORAD_CAT_ID":57515,"ELEMENT_SET_NO":999,"REV_AT_EPOCH":11368,"BSTAR":-6.552879e-6,"MEAN_MOTION_DOT":-2.92e-6,"MEAN_MOTION_DDOT":0},{"OBJECT_NAME":"STARLINK-30149","OBJECT_ID":"2023-113X","EPOCH":"2025-08-20T21:04:17.115168","MEAN_MOTION":15.02536645,"ECCENTRICITY":0.0001317,"INCLINATION":43.0047,"RA_OF_ASC_NODE":28.433,"ARG_OF_PERICENTER":265.3203,"MEAN_ANOMALY":94.7489,"EPHEMERIS_TYPE":0,"CLASSIFICATION_TYPE":"U","NORAD_CAT_ID":57516,"ELEMENT_SET_NO":999,"REV_AT_EPOCH":11335,"BSTAR":8.2535e-5,"MEAN_MOTION_DOT":9.11e-6,"MEAN_MOTION_DDOT":0},{"OBJECT_NAME":"STARLINK-30259","OBJECT_ID":"2023-115A","EPOCH":"2025-08-20T21:04:48.995040","MEAN_MOTION":15.02550227,"ECCENTRICITY":0.0001342,"INCLINATION":43.0035,"RA_OF_ASC_NODE":16.1847,"ARG_OF_PERICENTER":259.9657,"MEAN_ANOMALY":100.1034,"EPHEMERIS_TYPE":0,"CLASSIFICATION_TYPE":"U","NORAD_CAT_ID":57521,"ELEMENT_SET_NO":999,"REV_AT_EPOCH":11332,"BSTAR":-0.00022697,"MEAN_MOTION_DOT":-3.269e-5,"MEAN_MOTION_DDOT":0},{"OBJECT_NAME":"STARLINK-30256","OBJECT_ID":"2023-115B","EPOCH":"2025-08-22T09:41:45.545568","MEAN_MOTION":15.02544674,"ECCENTRICITY":0.00012191,"INCLINATION":43.004,"RA_OF_ASC_NODE":7.8497,"ARG_OF_PERICENTER":172.1588,"MEAN_ANOMALY":187.9273,"EPHEMERIS_TYPE":0,"CLASSIFICATION_TYPE":"U","NORAD_CAT_ID":57522,"ELEMENT_SET_NO":999,"REV_AT_EPOCH":11233,"BSTAR":0.00013494892,"MEAN_MOTION_DOT":1.62e-5,"MEAN_MOTION_DDOT":0},{"OBJECT_NAME":"STARLINK-30261","OBJECT_ID":"2023-115C","EPOCH":"2025-08-20T20:55:13.056096","MEAN_MOTION":15.02530735,"ECCENTRICITY":0.0001414,"INCLINATION":43.0049,"RA_OF_ASC_NODE":16.1327,"ARG_OF_PERICENTER":263.03,"MEAN_ANOMALY":97.0382,"EPHEMERIS_TYPE":0,"CLASSIFICATION_TYPE":"U","NORAD_CAT_ID":57523,"ELEMENT_SET_NO":999,"REV_AT_EPOCH":11210,"BSTAR":2.5426e-5,"MEAN_MOTION_DOT":1.4e-6,"MEAN_MOTION_DDOT":0},{"OBJECT_NAME":"STARLINK-30260","OBJECT_ID":"2023-115D","EPOCH":"2025-08-21T17:34:53.546016","MEAN_MOTION":15.02544004,"ECCENTRICITY":0.00015122,"INCLINATION":43.005,"RA_OF_ASC_NODE":11.4313,"ARG_OF_PERICENTER":265.5884,"MEAN_ANOMALY":94.4785,"EPHEMERIS_TYPE":0,"CLASSIFICATION_TYPE":"U","NORAD_CAT_ID":57524,"ELEMENT_SET_NO":999,"REV_AT_EPOCH":11223,"BSTAR":3.262446e-5,"MEAN_MOTION_DOT":2.37e-6,"MEAN_MOTION_DDOT":0},{"OBJECT_NAME":"STARLINK-30253","OBJECT_ID":"2023-115E","EPOCH":"2025-08-22T09:17:45.282624","MEAN_MOTION":15.02561879,"ECCENTRICITY":0.00017484,"INCLINATION":43.0065,"RA_OF_ASC_NODE":7.73,"ARG_OF_PERICENTER":267.9875,"MEAN_ANOMALY":92.0767,"EPHEMERIS_TYPE":0,"CLASSIFICATION_TYPE":"U","NORAD_CAT_ID":57525,"ELEMENT_SET_NO":999,"REV_AT_EPOCH":11233,"BSTAR":9.1015255e-5,"MEAN_MOTION_DOT":1.027e-5,"MEAN_MOTION_DDOT":0},{"OBJECT_NAME":"STARLINK-30257","OBJECT_ID":"2023-115F","EPOCH":"2025-08-21T17:25:18.124608","MEAN_MOTION":15.02534006,"ECCENTRICITY":0.00012901,"INCLINATION":43.0039,"RA_OF_ASC_NODE":11.3886,"ARG_OF_PERICENTER":260.8753,"MEAN_ANOMALY":99.1944,"EPHEMERIS_TYPE":0,"CLASSIFICATION_TYPE":"U","NORAD_CAT_ID":57526,"ELEMENT_SET_NO":999,"REV_AT_EPOCH":11223,"BSTAR":1.2978339e-5,"MEAN_MOTION_DOT":-2.8e-7,"MEAN_MOTION_DDOT":0},{"OBJECT_NAME":"STARLINK-30250","OBJECT_ID":"2023-115G","EPOCH":"2025-08-22T10:48:43.206048","MEAN_MOTION":15.02534458,"ECCENTRICITY":0.00012711,"INCLINATION":43.0045,"RA_OF_ASC_NODE":7.3375,"ARG_OF_PERICENTER":266.5383,"MEAN_ANOMALY":93.5314,"EPHEMERIS_TYPE":0,"CLASSIFICATION_TYPE":"U","NORAD_CAT_ID":57527,"ELEMENT_SET_NO":999,"REV_AT_EPOCH":11324,"BSTAR":-4.871939e-6,"MEAN_MOTION_DOT":-2.69e-6,"MEAN_MOTION_DDOT":0},{"OBJECT_NAME":"STARLINK-30269","OBJECT_ID":"2023-115H","EPOCH":"2025-08-22T10:29:32.857440","MEAN_MOTION":15.02530593,"ECCENTRICITY":0.00011963,"INCLINATION":43.0033,"RA_OF_ASC_NODE":7.2678,"ARG_OF_PERICENTER":267.9184,"MEAN_ANOMALY":92.1522,"EPHEMERIS_TYPE":0,"CLASSIFICATION_TYPE":"U","NORAD_CAT_ID":57528,"ELEMENT_SET_NO":999,"REV_AT_EPOCH":11234,"BSTAR":-3.9110468e-5,"MEAN_MOTION_DOT":-7.32e-6,"MEAN_MOTION_DDOT":0},{"OBJECT_NAME":"STARLINK-30266","OBJECT_ID":"2023-115J","EPOCH":"2025-08-20T19:57:40.666752","MEAN_MOTION":15.02520578,"ECCENTRICITY":0.0001598,"INCLINATION":43.005,"RA_OF_ASC_NODE":15.843,"ARG_OF_PERICENTER":267.4837,"MEAN_ANOMALY":92.5823,"EPHEMERIS_TYPE":0,"CLASSIFICATION_TYPE":"U","NORAD_CAT_ID":57529,"ELEMENT_SET_NO":999,"REV_AT_EPOCH":11210,"BSTAR":-9.3622e-5,"MEAN_MOTION_DOT":-1.468e-5,"MEAN_MOTION_DDOT":0},{"OBJECT_NAME":"STARLINK-30270","OBJECT_ID":"2023-115K","EPOCH":"2025-08-21T10:28:49.393056","MEAN_MOTION":15.02536484,"ECCENTRICITY":0.00012144,"INCLINATION":43.0037,"RA_OF_ASC_NODE":12.6531,"ARG_OF_PERICENTER":271.1914,"MEAN_ANOMALY":88.8789,"EPHEMERIS_TYPE":0,"CLASSIFICATION_TYPE":"U","NORAD_CAT_ID":57530,"ELEMENT_SET_NO":999,"REV_AT_EPOCH":11219,"BSTAR":2.886478e-5,"MEAN_MOTION_DOT":1.86e-6,"MEAN_MOTION_DDOT":0},{"OBJECT_NAME":"STARLINK-30268","OBJECT_ID":"2023-115L","EPOCH":"2025-08-22T10:43:56.179200","MEAN_MOTION":15.02529272,"ECCENTRICITY":0.00015462,"INCLINATION":43.0059,"RA_OF_ASC_NODE":7.3351,"ARG_OF_PERICENTER":273.4563,"MEAN_ANOMALY":86.6102,"EPHEMERIS_TYPE":0,"CLASSIFICATION_TYPE":"U","NORAD_CAT_ID":57531,"ELEMENT_SET_NO":999,"REV_AT_EPOCH":11234,"BSTAR":-4.5834532e-5,"MEAN_MOTION_DOT":-8.23e-6,"MEAN_MOTION_DDOT":0},{"OBJECT_NAME":"STARLINK-30251","OBJECT_ID":"2023-115M","EPOCH":"2025-08-22T10:35:56.170176","MEAN_MOTION":15.02534093,"ECCENTRICITY":0.00011776,"INCLINATION":43.0032,"RA_OF_ASC_NODE":7.2763,"ARG_OF_PERICENTER":272.1866,"MEAN_ANOMALY":87.8841,"EPHEMERIS_TYPE":0,"CLASSIFICATION_TYPE":"U","NORAD_CAT_ID":57532,"ELEMENT_SET_NO":999,"REV_AT_EPOCH":11234,"BSTAR":-4.3941521e-5,"MEAN_MOTION_DOT":-7.97e-6,"MEAN_MOTION_DDOT":0}]
